{
  "64026": {
    "noradId": "64026",
    "tle": [
      "1 64026C 25102E   26002.78937500 -.00016575  00000+0 -13889-2 0    28",
      "2 64026  70.0013 280.8135 0003093 270.7912 172.7270 14.98349952    12"
    ]
  },
  "64027": {
    "noradId": "64027",
    "tle": [
      "1 64027C 25102F   26002.78659722  .00010547  00000+0  88428-3 0    29",
      "2 64027  70.0013 280.6176 0003157 269.4136 339.2721 14.98303058    18"
    ]
  },
  "64028": {
    "noradId": "64028",
    "tle": [
      "1 64028C 25102G   26002.78868056  .00000081  00000+0  67834-5 0    24",
      "2 64028  70.0012 280.4339 0003071 267.1299 150.3748 14.98310620    11"
    ]
  },
  "64029": {
    "noradId": "64029",
    "tle": [
      "1 64029C 25102H   26002.78937500 -.00024951  00000+0 -20908-2 0    28",
      "2 64029  70.0013 280.6825 0003080 270.8536 284.3085 14.98359355    10"
    ]
  },
  "64030": {
    "noradId": "64030",
    "tle": [
      "1 64030C 25102J   26002.78590278 -.00008650  00000+0 -72490-3 0    29",
      "2 64030  70.0015 280.7713 0003064 266.3048 203.5201 14.98337596    17"
    ]
  },
  "64031": {
    "noradId": "64031",
    "tle": [
      "1 64031C 25102K   26002.78381944 -.00017338  00000+0 -14529-2 0    29",
      "2 64031  70.0015 280.6759 0003005 271.4154 277.1948 14.98351390    10"
    ]
  },
  "64032": {
    "noradId": "64032",
    "tle": [
      "1 64032C 25102L   26002.78381944 -.00006356  00000+0 -53262-3 0    26",
      "2 64032  70.0011 280.4965 0003072 272.7517  73.4263 14.98338390    17"
    ]
  },
  "64033": {
    "noradId": "64033",
    "tle": [
      "1 64033C 25102M   26002.78868056 -.00012147  00000+0 -10179-2 0    25",
      "2 64033  70.0011 280.5607 0003107 271.9496  32.9141 14.98346089    17"
    ]
  },
  "64034": {
    "noradId": "64034",
    "tle": [
      "1 64034C 25102N   26002.78729167 -.00017670  00000+0 -14807-2 0    23",
      "2 64034  70.0011 280.5938 0002884 271.4337   2.5487 14.98351325    10"
    ]
  },
  "64035": {
    "noradId": "64035",
    "tle": [
      "1 64035C 25102P   26002.78451389 -.00014479  00000+0 -12133-2 0    26",
      "2 64035  70.0013 280.6804 0002935 272.2069 166.7559 14.98348444    15"
    ]
  },
  "64036": {
    "noradId": "64036",
    "tle": [
      "1 64036C 25102Q   26002.78798611 -.00011174  00000+0 -93637-3 0    27",
      "2 64036  70.0012 280.7106 0002727 270.9631 254.1994 14.98345397    19"
    ]
  },
  "64037": {
    "noradId": "64037",
    "tle": [
      "1 64037C 25102R   26002.78868056  .00011244  00000+0  94275-3 0    24",
      "2 64037  70.0015 280.6325 0003093 270.6755 325.8487 14.98301210    15"
    ]
  },
  "64038": {
    "noradId": "64038",
    "tle": [
      "1 64038C 25102S   26002.78520833  .00014436  00000+0  12106-2 0    21",
      "2 64038  70.0011 280.4664 0002524 260.7901 115.3829 14.98291098    11"
    ]
  },
  "64039": {
    "noradId": "64039",
    "tle": [
      "1 64039C 25102T   26002.78381944 -.00000735  00000+0 -61516-4 0    20",
      "2 64039  70.0013 280.8223 0003711 272.7078 139.8329 14.98355142    13"
    ]
  },
  "64040": {
    "noradId": "64040",
    "tle": [
      "1 64040C 25102U   26002.78868056 -.00013026  00000+0 -10915-2 0    28",
      "2 64040  70.0013 280.7331 0002867 271.6478 234.7577 14.98346662    14"
    ]
  },
  "64041": {
    "noradId": "64041",
    "tle": [
      "1 64041C 25102V   26002.78729167 -.00013362  00000+0 -11198-2 0    25",
      "2 64041  70.0015 280.6616 0003005 272.7098 293.7480 14.98346060    17"
    ]
  },
  "64042": {
    "noradId": "64042",
    "tle": [
      "1 64042C 25102W   26002.78520833 -.00004342  00000+0 -36390-3 0    25",
      "2 64042  70.0012 280.7964 0003082 271.9236 171.6492 14.98332706    11"
    ]
  },
  "64043": {
    "noradId": "64043",
    "tle": [
      "1 64043C 25102X   26002.78798611 -.00034058  00000+0 -28534-2 0    24",
      "2 64043  70.0014 280.6894 0002804 270.3634 278.1686 14.98375767    13"
    ]
  },
  "64044": {
    "noradId": "64044",
    "tle": [
      "1 64044C 25102Y   26002.78520833 -.00021585  00000+0 -18088-2 0    28",
      "2 64044  70.0013 280.7461 0002791 272.3942 216.1911 14.98354678    14"
    ]
  },
  "64045": {
    "noradId": "64045",
    "tle": [
      "1 64045C 25102Z   26002.78937500 -.00004299  00000+0 -36040-3 0    24",
      "2 64045  70.0010 280.5826 0002726 275.9854  10.1825 14.98323964    14"
    ]
  },
  "64046": {
    "noradId": "64046",
    "tle": [
      "1 64046C 25102AA  26002.78729167 -.00010065  00000+0 -84342-3 0    29",
      "2 64046  70.0011 280.5378 0002980 272.5424  47.3414 14.98343491    19"
    ]
  },
  "64047": {
    "noradId": "64047",
    "tle": [
      "1 64047C 25102AB  26002.78590278 -.00005689  00000+0 -47677-3 0    25",
      "2 64047  70.0014 280.6433 0002993 270.7667 311.5989 14.98335226    19"
    ]
  },
  "64064": {
    "noradId": "64064",
    "tle": [
      "1 64064C 25107A   26002.82131944  .00014337  00000+0  11139-3 0    27",
      "2 64064  43.0005 135.8110 0001649 268.7859  54.5248 15.70817069    11"
    ]
  },
  "64065": {
    "noradId": "64065",
    "tle": [
      "1 64065C 25107B   26002.82131944  .00005257  00000+0  40841-4 0    22",
      "2 64065  43.0002 135.5114 0001593 269.3293 174.2205 15.70826302    10"
    ]
  },
  "64066": {
    "noradId": "64066",
    "tle": [
      "1 64066C 25107C   26002.82062500 -.00004196  00000+0 -32595-4 0    24",
      "2 64066  43.0003 135.2910 0001696 267.5389 262.2536 15.70837298    14"
    ]
  },
  "64067": {
    "noradId": "64067",
    "tle": [
      "1 64067C 25107D   26002.82201389  .00015043  00000+0  11685-3 0    22",
      "2 64067  43.0002 135.1328 0001662 271.2427 326.5346 15.70821098    18"
    ]
  },
  "64068": {
    "noradId": "64068",
    "tle": [
      "1 64068C 25107E   26002.81993056  .00025991  00000+0  20191-3 0    26",
      "2 64068  43.0003 135.6809 0001653 288.9881  81.4196 15.70808590    10"
    ]
  },
  "64069": {
    "noradId": "64069",
    "tle": [
      "1 64069C 25107F   26002.82201389  .00021595  00000+0  16775-3 0    28",
      "2 64069  43.0004 135.8795 0001656 265.6596  31.5154 15.70813881    15"
    ]
  },
  "64070": {
    "noradId": "64070",
    "tle": [
      "1 64070C 25107G   26002.82548611  .00006963  00000+0  54100-4 0    29",
      "2 64070  43.0002 135.4094 0001747 265.2225 231.9846 15.70823404    15"
    ]
  }
}