OBJECT_NAME,OBJECT_ID,EPOCH,MEAN_MOTION,ECCENTRICITY,INCLINATION,RA_OF_ASC_NODE,ARG_OF_PERICENTER,MEAN_ANOMALY,EPHEMERIS_TYPE,CLASSIFICATION_TYPE,NORAD_CAT_ID,ELEMENT_SET_NO,REV_AT_EPOCH,BSTAR,MEAN_MOTION_DOT,MEAN_MOTION_DDOT,RMS,DATA_SOURCE
STARLINK-33992,2025-102E,2026-01-02T18:56:42.000000,14.98349952,.0003093,70.0013,280.8135,270.7912,172.7270,0,C,64026,2,1,-.13889E-2,-.16575E-3,0,0.259,SpaceX-E
STARLINK-33967,2025-102F,2026-01-02T18:52:41.999981,14.98303058,.0003157,70.0013,280.6176,269.4136,339.2721,0,C,64027,2,1,.88428E-3,.10547E-3,0,0.272,SpaceX-E
STARLINK-33953,2025-102G,2026-01-02T18:55:42.000038,14.98310620,.0003071,70.0012,280.4339,267.1299,150.3748,0,C,64028,2,1,.67834E-5,.80901E-6,0,0.374,SpaceX-E
STARLINK-33790,2025-102H,2026-01-02T18:56:42.000000,14.98359355,.000308,70.0013,280.6825,270.8536,284.3085,0,C,64029,2,1,-.20908E-2,-.24951E-3,0,0.271,SpaceX-E
STARLINK-34030,2025-102J,2026-01-02T18:51:42.000019,14.98337596,.0003064,70.0015,280.7713,266.3048,203.5201,0,C,64030,2,1,-.7249E-3,-.86495E-4,0,0.270,SpaceX-E
STARLINK-34024,2025-102K,2026-01-02T18:48:41.999962,14.98351390,.0003005,70.0015,280.6759,271.4154,277.1948,0,C,64031,2,1,-.14529E-2,-.17338E-3,0,0.287,SpaceX-E
STARLINK-34019,2025-102L,2026-01-02T18:48:41.999962,14.98338390,.0003072,70.0011,280.4965,272.7517,73.4263,0,C,64032,2,1,-.53262E-3,-.63558E-4,0,0.246,SpaceX-E
STARLINK-33860,2025-102M,2026-01-02T18:55:42.000038,14.98346089,.0003107,70.0011,280.5607,271.9496,32.9141,0,C,64033,2,1,-.10179E-2,-.12147E-3,0,0.228,SpaceX-E
STARLINK-33946,2025-102N,2026-01-02T18:53:42.000029,14.98351325,.0002884,70.0011,280.5938,271.4337,2.5487,0,C,64034,2,1,-.14807E-2,-.1767E-3,0,0.226,SpaceX-E
STARLINK-34046,2025-102P,2026-01-02T18:49:42.000010,14.98348444,.0002935,70.0013,280.6804,272.2069,166.7559,0,C,64035,2,1,-.12133E-2,-.14479E-3,0,0.280,SpaceX-E
STARLINK-34085,2025-102Q,2026-01-02T18:54:41.999990,14.98345397,.0002727,70.0012,280.7106,270.9631,254.1994,0,C,64036,2,1,-.93637E-3,-.11174E-3,0,0.274,SpaceX-E
STARLINK-34008,2025-102R,2026-01-02T18:55:42.000038,14.98301210,.0003093,70.0015,280.6325,270.6755,325.8487,0,C,64037,2,1,.94275E-3,.11244E-3,0,0.270,SpaceX-E
STARLINK-34079,2025-102S,2026-01-02T18:50:41.999971,14.98291098,.0002524,70.0011,280.4664,260.7901,115.3829,0,C,64038,2,1,.12106E-2,.14436E-3,0,0.304,SpaceX-E
STARLINK-34089,2025-102T,2026-01-02T18:48:41.999962,14.98355142,.0003711,70.0013,280.8223,272.7078,139.8329,0,C,64039,2,1,-.61516E-4,-.73453E-5,0,0.264,SpaceX-E
STARLINK-34117,2025-102U,2026-01-02T18:55:42.000038,14.98346662,.0002867,70.0013,280.7331,271.6478,234.7577,0,C,64040,2,1,-.10915E-2,-.13026E-3,0,0.276,SpaceX-E
STARLINK-34111,2025-102V,2026-01-02T18:53:42.000029,14.98346060,.0003005,70.0015,280.6616,272.7098,293.7480,0,C,64041,2,1,-.11198E-2,-.13362E-3,0,0.230,SpaceX-E
STARLINK-34049,2025-102W,2026-01-02T18:50:41.999971,14.98332706,.0003082,70.0012,280.7964,271.9236,171.6492,0,C,64042,2,1,-.3639E-3,-.4342E-4,0,0.270,SpaceX-E
STARLINK-34096,2025-102X,2026-01-02T18:54:41.999990,14.98375767,.0002804,70.0014,280.6894,270.3634,278.1686,0,C,64043,2,1,-.28534E-2,-.34058E-3,0,0.292,SpaceX-E
STARLINK-34081,2025-102Y,2026-01-02T18:50:41.999971,14.98354678,.0002791,70.0013,280.7461,272.3942,216.1911,0,C,64044,2,1,-.18088E-2,-.21585E-3,0,0.298,SpaceX-E
STARLINK-34033,2025-102Z,2026-01-02T18:56:42.000000,14.98323964,.0002726,70.0010,280.5826,275.9854,10.1825,0,C,64045,2,1,-.3604E-3,-.42992E-4,0,0.234,SpaceX-E
STARLINK-33952,2025-102AA,2026-01-02T18:53:42.000029,14.98343491,.000298,70.0011,280.5378,272.5424,47.3414,0,C,64046,2,1,-.84342E-3,-.10065E-3,0,0.234,SpaceX-E
STARLINK-33961,2025-102AB,2026-01-02T18:51:42.000019,14.98335226,.0002993,70.0014,280.6433,270.7667,311.5989,0,C,64047,2,1,-.47677E-3,-.56889E-4,0,0.266,SpaceX-E
STARLINK-11741 [DTC],2025-107A,2026-01-02T19:42:41.999962,15.70817069,.0001649,43.0005,135.8110,268.7859,54.5248,0,C,64064,2,1,.11139E-3,.14337E-3,0,0.513,SpaceX-E
STARLINK-11709 [DTC],2025-107B,2026-01-02T19:42:41.999962,15.70826302,.0001593,43.0002,135.5114,269.3293,174.2205,0,C,64065,2,1,.40841E-4,.52568E-4,0,0.510,SpaceX-E
STARLINK-11737 [DTC],2025-107C,2026-01-02T19:41:42.000000,15.70837298,.0001696,43.0003,135.2910,267.5389,262.2536,0,C,64066,2,1,-.32595E-4,-.41957E-4,0,0.594,SpaceX-E
STARLINK-11726 [DTC],2025-107D,2026-01-02T19:43:42.000010,15.70821098,.0001662,43.0002,135.1328,271.2427,326.5346,0,C,64067,2,1,.11685E-3,.15043E-3,0,0.645,SpaceX-E
STARLINK-11700 [DTC],2025-107E,2026-01-02T19:40:42.000038,15.70808590,.0001653,43.0003,135.6809,288.9881,81.4196,0,C,64068,2,1,.20191E-3,.25991E-3,0,0.625,SpaceX-E
STARLINK-11649 [DTC],2025-107F,2026-01-02T19:43:42.000010,15.70813881,.0001656,43.0004,135.8795,265.6596,31.5154,0,C,64069,2,1,.16775E-3,.21595E-3,0,0.578,SpaceX-E
STARLINK-11713 [DTC],2025-107G,2026-01-02T19:48:41.999990,15.70823404,.0001747,43.0002,135.4094,265.2225,231.9846,0,C,64070,2,1,.541E-4,.69631E-4,0,0.453,SpaceX-E
